54146,ONEWEB-0531,2022,109.03,148.0,+,87.93,Active,1,LEO,India,UK,Commercial,Communications,PSLV,1 54146U 22138AK  24352.64725916  .00000857  00000+0  20750-2 0  9997,2 54146  87.9256  23.1732 0002461 117.2638 242.8746 13.20769712107164,13.20769712,0.0002461,LEO
54147,ONEWEB-0535,2022,109.11,148.0,+,87.92,Active,1,LEO,India,UK,Commercial,Communications,PSLV,1 54147U 22138AL  24352.89511137  .00000149  00000+0  33993-3 0  9991,2 54147  87.9173  53.5760 0001943 105.9991 254.1355 13.19728272104782,13.19728272,0.0001943,LEO
54148,ONEWEB-0536,2022,109.03,148.0,+,87.93,Active,1,LEO,India,UK,Commercial,Communications,PSLV,1 54148U 22138AM  24352.63461889 -.00000035  00000+0 -11795-3 0  9994,2 54148  87.9257  23.2229 0002411 120.6533 239.4838 13.20771367107158,13.20771367,0.0002411,LEO
54642,ONEWEB-0527,2022,108.94,148.0,+,87.93,Active,1,LEO,USA,UK,Commercial,Communications,Falcon,1 54642U 22166A   24352.71900076  .00000191  00000+0  43070-3 0  9991,2 54642  87.9293 352.8682 0001683  92.1666 267.9660 13.21829569 99340,13.21829569,0.0001683,LEO
54643,ONEWEB-0528,2022,108.94,148.0,+,87.93,Active,1,LEO,USA,UK,Commercial,Communications,Falcon,1 54643U 22166B   24352.72533459  .00000160  00000+0  35638-3 0  9997,2 54643  87.9298 352.8600 0001678  87.8609 272.2717 13.21826259 99354,13.21826259,0.0001678,LEO
54644,ONEWEB-0539,2022,108.94,148.0,+,87.93,Active,1,LEO,USA,UK,Commercial,Communications,Falcon,1 54644U 22166C   24353.06438323 -.00000032  00000+0 -10959-3 0  9999,2 54644  87.9297 352.7973 0001876  83.1470 276.9877 13.21827146 99849,13.21827146,0.0001876,LEO
54645,ONEWEB-0540,2022,108.94,148.0,+,87.93,Active,1,LEO,USA,UK,Commercial,Communications,Falcon,1 54645U 22166D   24352.52899275  .00000072  00000+0  14254-3 0  9991,2 54645  87.9292 352.9115 0001898  84.0430 276.0921 13.21827099 99315,13.21827099,0.0001898,LEO
54646,ONEWEB-0542,2022,108.94,148.0,+,87.93,Active,1,LEO,USA,UK,Commercial,Communications,Falcon,1 54646U 22166E   24352.54395205  .00000059  00000+0  11222-3 0  9995,2 54646  87.9298 352.8995 0002195  83.7485 276.3899 13.21822497 99329,13.21822497,0.0002195,LEO
